$$SOE
2461302.500000000, A.D. 2026-Sep-19 00:00:00.0000, -3.926764547657182E+08, -9.785602105279455E+07, -4.957149351870319E+07,
2461309.500000000, A.D. 2026-Sep-26 00:00:00.0000, -3.913794252343361E+08, -1.093675497822738E+08, -4.875033053237861E+07,
2461316.500000000, A.D. 2026-Oct-03 00:00:00.0000, -3.898052877743096E+08, -1.208016295016491E+08, -4.789464461858124E+07,
2461323.500000000, A.D. 2026-Oct-10 00:00:00.0000, -3.879583852838011E+08, -1.321511693717903E+08, -4.700543844000980E+07,
2461330.500000000, A.D. 2026-Oct-17 00:00:00.0000, -3.858432331920001E+08, -1.434093299595832E+08, -4.608372493672654E+07,
2461337.500000000, A.D. 2026-Oct-24 00:00:00.0000, -3.834645047555634E+08, -1.545695249858233E+08, -4.513052516460763E+07,
2461344.500000000, A.D. 2026-Oct-31 00:00:00.0000, -3.808270166185306E+08, -1.656254223689620E+08, -4.414686625316107E+07,
2461351.500000000, A.D. 2026-Nov-07 00:00:00.0000, -3.779357143403978E+08, -1.765709445464444E+08, -4.313377951057184E+07,
2461358.500000000, A.D. 2026-Nov-14 00:00:00.0000, -3.747956577287403E+08, -1.874002672427245E+08, -4.209229862367956E+07,
2461365.500000000, A.D. 2026-Nov-21 00:00:00.0000, -3.714120078188644E+08, -1.981078160590040E+08, -4.102345773189463E+07,
2461372.500000000, A.D. 2026-Nov-28 00:00:00.0000, -3.677900165243152E+08, -2.086882639505436E+08, -3.992828952978186E+07,
2461379.500000000, A.D. 2026-Dec-05 00:00:00.0000, -3.639350153611408E+08, -2.191365303051409E+08, -3.880782378391616E+07,
2461386.500000000, A.D. 2026-Dec-12 00:00:00.0000, -3.598524030979046E+08, -2.294477785660162E+08, -3.766308602372134E+07,
2461393.500000000, A.D. 2026-Dec-19 00:00:00.0000, -3.555476342286729E+08, -2.396174124446957E+08, -3.649509623051363E+07,
2461400.500000000, A.D. 2026-Dec-26 00:00:00.0000, -3.510262084165717E+08, -2.496410716434776E+08, -3.530486758027005E+07,
2461407.500000000, A.D. 2027-Jan-02 00:00:00.0000, -3.462936606347713E+08, -2.595146273291708E+08, -3.409340527870920E+07,
2461414.500000000, A.D. 2027-Jan-09 00:00:00.0000, -3.413555518886098E+08, -2.692341773865044E+08, -3.286170549521959E+07,
2461421.500000000, A.D. 2027-Jan-16 00:00:00.0000, -3.362174604815910E+08, -2.787960414880567E+08, -3.161075439518884E+07,
2461428.500000000, A.D. 2027-Jan-23 00:00:00.0000, -3.308849737746189E+08, -2.881967560632579E+08, -3.034152727490315E+07,
2461435.500000000, A.D. 2027-Jan-30 00:00:00.0000, -3.253636802437946E+08, -2.974330692545587E+08, -2.905498781668343E+07,
2461442.500000000, A.D. 2027-Feb-06 00:00:00.0000, -3.196591614031685E+08, -3.065019355581596E+08, -2.775208747182347E+07,
2461449.500000000, A.D. 2027-Feb-13 00:00:00.0000, -3.137769840417103E+08, -3.154005089636447E+08, -2.643376482559313E+07,
2461456.500000000, A.D. 2027-Feb-20 00:00:00.0000, -3.077226951243617E+08, -3.241261354143379E+08, -2.510094478809570E+07,
2461463.500000000, A.D. 2027-Feb-27 00:00:00.0000, -3.015018179449318E+08, -3.326763478309676E+08, -2.375453799770749E+07,
2461470.500000000, A.D. 2027-Mar-06 00:00:00.0000, -2.951198464956778E+08, -3.410488618030317E+08, -2.239544055309239E+07,
2461477.500000000, A.D. 2027-Mar-13 00:00:00.0000, -2.885822396356767E+08, -3.492415699230151E+08, -2.102453375593586E+07,
2461484.500000000, A.D. 2027-Mar-20 00:00:00.0000, -2.818944161684161E+08, -3.572525356213731E+08, -1.964268382559128E+07,
2461491.500000000, A.D. 2027-Mar-27 00:00:00.0000, -2.750617506079567E+08, -3.650799870732744E+08, -1.825074164580494E+07,
2461498.500000000, A.D. 2027-Apr-03 00:00:00.0000, -2.680895694130352E+08, -3.727223112449030E+08, -1.684954256287688E+07,
2461505.500000000, A.D. 2027-Apr-10 00:00:00.0000, -2.609831476107513E+08, -3.801780480736615E+08, -1.543990623571107E+07,
2461512.500000000, A.D. 2027-Apr-17 00:00:00.0000, -2.537477057705537E+08, -3.874458848111120E+08, -1.402263653749996E+07,
2461519.500000000, A.D. 2027-Apr-24 00:00:00.0000, -2.463884072316101E+08, -3.945246506028817E+08, -1.259852151790440E+07,
2461526.500000000, A.D. 2027-May-01 00:00:00.0000, -2.389103552659152E+08, -4.014133112879117E+08, -1.116833344755557E+07,
2461533.500000000, A.D. 2027-May-08 00:00:00.0000, -2.313185898517857E+08, -4.081109636771866E+08, -9.732828908686191E+06,
2461540.500000000, A.D. 2027-May-15 00:00:00.0000, -2.236180855366876E+08, -4.146168283652170E+08, -8.292748713637978E+06,
2461547.500000000, A.D. 2027-May-22 00:00:00.0000, -2.158137519351042E+08, -4.209302436713746E+08, -6.848817716832280E+06,
2461554.500000000, A.D. 2027-May-29 00:00:00.0000, -2.079104334881392E+08, -4.270506621850678E+08, -5.401744945438027E+06,
2461561.500000000, A.D. 2027-Jun-05 00:00:00.0000, -1.999129075841352E+08, -4.329776467882032E+08, -3.952223871434987E+06,
2461568.500000000, A.D. 2027-Jun-12 00:00:00.0000, -1.918258830325536E+08, -4.387108657265847E+08, -2.500932603180885E+06,
2461575.500000000, A.D. 2027-Jun-19 00:00:00.0000, -1.836539992071627E+08, -4.442500876675306E+08, -1.048534040194154E+06,
2461582.500000000, A.D. 2027-Jun-26 00:00:00.0000, -1.754018255646909E+08, -4.495951770067120E+08, 4.043239640317261E+05,
2461589.500000000, A.D. 2027-Jul-03 00:00:00.0000, -1.670738613931463E+08, -4.547460894172762E+08, 1.857008421772271E+06,
2461596.500000000, A.D. 2027-Jul-10 00:00:00.0000, -1.586745357402665E+08, -4.597028676335754E+08, 3.308901012663215E+06,
2461603.500000000, A.D. 2027-Jul-17 00:00:00.0000, -1.502082074740878E+08, -4.644656375087979E+08, 4.759397862561613E+06,
2461610.500000000, A.D. 2027-Jul-24 00:00:00.0000, -1.416791653083191E+08, -4.690346044088564E+08, 6.207909282070309E+06,
2461617.500000000, A.D. 2027-Jul-31 00:00:00.0000, -1.330916273707221E+08, -4.734100497057663E+08, 7.653859447998911E+06,
2461624.500000000, A.D. 2027-Aug-07 00:00:00.0000, -1.244497405052935E+08, -4.775923262167588E+08, 9.096686141884148E+06,
2461631.500000000, A.D. 2027-Aug-14 00:00:00.0000, -1.157575815996462E+08, -4.815818528395139E+08, 1.053584073726788E+07,
2461638.500000000, A.D. 2027-Aug-21 00:00:00.0000, -1.070191603095824E+08, -4.853791117446878E+08, 1.197078810516882E+07,
2461645.500000000, A.D. 2027-Aug-28 00:00:00.0000, -9.823841974077353E+07, -4.889846469205663E+08, 1.340100622237417E+07,
2461652.500000000, A.D. 2027-Sep-04 00:00:00.0000, -8.941923626090033E+07, -4.923990615655518E+08, 1.482598579630718E+07,
2461659.500000000, A.D. 2027-Sep-11 00:00:00.0000, -8.056541983033679E+07, -4.956230149868836E+08, 1.624522998116460E+07,
2461666.500000000, A.D. 2027-Sep-18 00:00:00.0000, -7.168071471125653E+07, -4.986572196523130E+08, 1.765825412057236E+07,
2461673.500000000, A.D. 2027-Sep-25 00:00:00.0000, -6.276880031967406E+07, -5.015024384686540E+08, 1.906458548988327E+07,
2461680.500000000, A.D. 2027-Oct-02 00:00:00.0000, -5.383329213903625E+07, -5.041594822559157E+08, 2.046376303385562E+07,
2461687.500000000, A.D. 2027-Oct-09 00:00:00.0000, -4.487774266699474E+07, -5.066292074180122E+08, 2.185533709764248E+07,
2461694.500000000, A.D. 2027-Oct-16 00:00:00.0000, -3.590564232696884E+07, -5.089125138615455E+08, 2.323886914121643E+07,
2461701.500000000, A.D. 2027-Oct-23 00:00:00.0000, -2.692042008014306E+07, -5.110103431647239E+08, 2.461393141335735E+07,
2461708.500000000, A.D. 2027-Oct-30 00:00:00.0000, -1.792544335920354E+07, -5.129236763818771E+08, 2.598010660108194E+07,
2461715.500000000, A.D. 2027-Nov-06 00:00:00.0000, -8.924018483386058E+06, -5.146535303504742E+08, 2.733698765364075E+07,
2461722.500000000, A.D. 2027-Nov-13 00:00:00.0000, 8.060646406430127E+04, -5.162009545713800E+08, 2.868417779350600E+07,
2461729.500000000, A.D. 2027-Nov-20 00:00:00.0000, 9.085239202927135E+06, -5.175670308437953E+08, 3.002129026955193E+07,
2461736.500000000, A.D. 2027-Nov-27 00:00:00.0000, 1.808674288966631E+07, -5.187528726880713E+08, 3.134794794660202E+07,
2461743.500000000, A.D. 2027-Dec-04 00:00:00.0000, 2.708203579746191E+07, -5.197596236407818E+08, 3.266378299207678E+07,
2461750.500000000, A.D. 2027-Dec-11 00:00:00.0000, 3.606809049442372E+07, -5.205884553838754E+08, 3.396843663192251E+07,
2461757.500000000, A.D. 2027-Dec-18 00:00:00.0000, 4.504193279684429E+07, -5.212405660442644E+08, 3.526155892329478E+07,
2461764.500000000, A.D. 2027-Dec-25 00:00:00.0000, 5.400064065118883E+07, -5.217171786627278E+08, 3.654280853016907E+07,
2461771.500000000, A.D. 2028-Jan-01 00:00:00.0000, 6.294134298805728E+07, -5.220195398139694E+08, 3.781185249946281E+07,
$$EOE